[{"OBJECT_NAME":"STARLINK-6206","OBJECT_ID":"2023-083A","EPOCH":"2026-03-09T01:50:48.375456","MEAN_MOTION":15.02539468,"ECCENTRICITY":0.00014325,"INCLINATION":43.0017,"RA_OF_ASC_NODE":85.5011,"ARG_OF_PERICENTER":272.9403,"MEAN_ANOMALY":87.1275,"EPHEMERIS_TYPE":0,"CLASSIFICATION_TYPE":"U","NORAD_CAT_ID":56876,"ELEMENT_SET_NO":999,"REV_AT_EPOCH":15157,"BSTAR":-2.0459368e-5,"MEAN_MOTION_DOT":-4.8e-6,"MEAN_MOTION_DDOT":0},{"OBJECT_NAME":"CZ-4B R\/B","OBJECT_ID":"2008-053C","EPOCH":"2026-03-09T16:52:55.405920","MEAN_MOTION":15.20774751,"ECCENTRICITY":0.00860777,"INCLINATION":97.7895,"RA_OF_ASC_NODE":133.277,"ARG_OF_PERICENTER":241.1085,"MEAN_ANOMALY":118.1494,"EPHEMERIS_TYPE":0,"CLASSIFICATION_TYPE":"U","NORAD_CAT_ID":33410,"ELEMENT_SET_NO":999,"REV_AT_EPOCH":94950,"BSTAR":0.00029822835,"MEAN_MOTION_DOT":7.181e-5,"MEAN_MOTION_DDOT":0}]
